{"type": "FeatureCollection", "features": [ {"type": "Feature", "properties": {"norad_id": 40664, "name": "SKY MEXICO-1", "group": "intelsat", "lat": 0.033418630940976454, "lon": 148.6199783653536, "alt_km": 35792.84217039253, "timestamp": "2025-12-14T09:36:22.702520+00:00", "meta": {"OBJECT_NAME": "SKY MEXICO-1", "OBJECT_ID": "2015-026B", "EPOCH": "2025-12-13T13:04:30.414144", "MEAN_MOTION": 1.0027221, "ECCENTRICITY": 0.00025087, "INCLINATION": 0.0386, "RA_OF_ASC_NODE": 80.3811, "ARG_OF_PERICENTER": 198.3538, "MEAN_ANOMALY": 281.1043, "EPHEMERIS_TYPE": 0, "CLASSIFICATION_TYPE": "U", "NORAD_CAT_ID": 40664, "ELEMENT_SET_NO": 999, "REV_AT_EPOCH": 3859, "BSTAR": 0, "MEAN_MOTION_DOT": -2.2e-06, "MEAN_MOTION_DDOT": 0}, "tle": {"line1": "1 40664U 15026B   25347.54479646 -.00000220  00000+0  00000+0 0  9993", "line2": "2 40664   0.0386  80.3811 0002508 198.3538 281.1043  1.00272210 38591"}}, "geometry": {"type": "Point", "coordinates": [148.6199783653536, 0.033418630940976454]}}, {"type": "Feature", "properties": {"norad_id": 40874, "name": "INTELSAT 34 (IS-34)", "group": "intelsat", "lat": -0.012662540364499203, "lon": 171.8989314995505, "alt_km": 35783.74637602105, "timestamp": "2025-12-14T09:36:22.702532+00:00", "meta": {"OBJECT_NAME": "INTELSAT 34 (IS-34)", "OBJECT_ID": "2015-039A", "EPOCH": "2025-12-12T13:12:57.677184", "MEAN_MOTION": 1.00271609, "ECCENTRICITY": 6.184e-05, "INCLINATION": 0.0135, "RA_OF_ASC_NODE": 325.751, "ARG_OF_PERICENTER": 204.0245, "MEAN_ANOMALY": 54.4583, "EPHEMERIS_TYPE": 0, "CLASSIFICATION_TYPE": "U", "NORAD_CAT_ID": 40874, "ELEMENT_SET_NO": 999, "REV_AT_EPOCH": 3775, "BSTAR": 0, "MEAN_MOTION_DOT": -2.74e-06, "MEAN_MOTION_DDOT": 0}, "tle": {"line1": "1 40874U 15039A   25346.55066756 -.00000274  00000+0  00000+0 0  9993", "line2": "2 40874   0.0135 325.7510 0000618 204.0245  54.4583  1.00271609 37756"}}, "geometry": {"type": "Point", "coordinates": [171.8989314995505, -0.012662540364499203]}}, {"type": "Feature", "properties": {"norad_id": 41581, "name": "INTELSAT 31 (IS-31)", "group": "intelsat", "lat": -0.005601832069419436, "lon": 132.32114522613912, "alt_km": 35784.82296649322, "timestamp": "2025-12-14T09:36:22.702544+00:00", "meta": {"OBJECT_NAME": "INTELSAT 31 (IS-31)", "OBJECT_ID": "2016-035A", "EPOCH": "2025-12-12T21:35:22.164576", "MEAN_MOTION": 1.00271383, "ECCENTRICITY": 0.00020554, "INCLINATION": 0.0183, "RA_OF_ASC_NODE": 268.2699, "ARG_OF_PERICENTER": 304.2994, "MEAN_ANOMALY": 98.0553, "EPHEMERIS_TYPE": 0, "CLASSIFICATION_TYPE": "U", "NORAD_CAT_ID": 41581, "ELEMENT_SET_NO": 999, "REV_AT_EPOCH": 3481, "BSTAR": 0, "MEAN_MOTION_DOT": -1.38e-06, "MEAN_MOTION_DDOT": 0}, "tle": {"line1": "1 41581U 16035A   25346.89956209 -.00000138  00000+0  00000+0 0  9993", "line2": "2 41581   0.0183 268.2699 0002055 304.2994  98.0553  1.00271383 34819"}}, "geometry": {"type": "Point", "coordinates": [132.32114522613912, -0.005601832069419436]}}, {"type": "Feature", "properties": {"norad_id": 41747, "name": "INTELSAT 36 (IS-36)", "group": "intelsat", "lat": -0.02414395433539653, "lon": -64.11295234548231, "alt_km": 35780.925901410046, "timestamp": "2025-12-14T09:36:22.702555+00:00", "meta": {"OBJECT_NAME": "INTELSAT 36 (IS-36)", "OBJECT_ID": "2016-053A", "EPOCH": "2025-12-13T12:03:51.221952", "MEAN_MOTION": 1.00272804, "ECCENTRICITY": 0.00013954, "INCLINATION": 0.0113, "RA_OF_ASC_NODE": 0.4303, "ARG_OF_PERICENTER": 329.8168, "MEAN_ANOMALY": 1.6387, "EPHEMERIS_TYPE": 0, "CLASSIFICATION_TYPE": "U", "NORAD_CAT_ID": 41747, "ELEMENT_SET_NO": 999, "REV_AT_EPOCH": 3408, "BSTAR": 0, "MEAN_MOTION_DOT": -1e-07, "MEAN_MOTION_DDOT": 0}, "tle": {"line1": "1 41747U 16053A   25347.50267618 -.00000010  00000+0  00000+0 0  9994", "line2": "2 41747   0.0113   0.4303 0001395 329.8168   1.6387  1.00272804 34089"}}, "geometry": {"type": "Point", "coordinates": [-64.11295234548231, -0.02414395433539653]}}, {"type": "Feature", "properties": {"norad_id": 41945, "name": "INTELSAT 32E (IS-32E)", "group": "intelsat", "lat": 0.021742778785122183, "lon": -175.76881216134552, "alt_km": 35787.31450861572, "timestamp": "2025-12-14T09:36:22.702567+00:00", "meta": {"OBJECT_NAME": "INTELSAT 32E (IS-32E)", "OBJECT_ID": "2017-007B", "EPOCH": "2025-12-12T11:33:44.679168", "MEAN_MOTION": 1.00273861, "ECCENTRICITY": 3.861e-05, "INCLINATION": 0.0354, "RA_OF_ASC_NODE": 82.6036, "ARG_OF_PERICENTER": 280.6351, "MEAN_ANOMALY": 208.4399, "EPHEMERIS_TYPE": 0, "CLASSIFICATION_TYPE": "U", "NORAD_CAT_ID": 41945, "ELEMENT_SET_NO": 999, "REV_AT_EPOCH": 3235, "BSTAR": 0, "MEAN_MOTION_DOT": -2.58e-06, "MEAN_MOTION_DDOT": 0}, "tle": {"line1": "1 41945U 17007B   25346.48176712 -.00000258  00000+0  00000+0 0  9998", "line2": "2 41945   0.0354  82.6036 0000386 280.6351 208.4399  1.00273861 32350"}}, "geometry": {"type": "Point", "coordinates": [-175.76881216134552, 0.021742778785122183]}}, {"type": "Feature", "properties": {"norad_id": 42818, "name": "INTELSAT 35E (IS-35E)", "group": "intelsat", "lat": -0.00891069994837452, "lon": -167.10884725792704, "alt_km": 35782.71583023115, "timestamp": "2025-12-14T09:36:22.702578+00:00", "meta": {"OBJECT_NAME": "INTELSAT 35E (IS-35E)", "OBJECT_ID": "2017-041A", "EPOCH": "2025-12-13T09:51:41.378976", "MEAN_MOTION": 1.00273219, "ECCENTRICITY": 0.00020505, "INCLINATION": 0.0182, "RA_OF_ASC_NODE": 13.0781, "ARG_OF_PERICENTER": 249.2789, "MEAN_ANOMALY": 293.4134, "EPHEMERIS_TYPE": 0, "CLASSIFICATION_TYPE": "U", "NORAD_CAT_ID": 42818, "ELEMENT_SET_NO": 999, "REV_AT_EPOCH": 3095, "BSTAR": 0, "MEAN_MOTION_DOT": -2.23e-06, "MEAN_MOTION_DDOT": 0}, "tle": {"line1": "1 42818U 17041A   25347.41089559 -.00000223  00000+0  00000+0 0  9994", "line2": "2 42818   0.0182  13.0781 0002050 249.2789 293.4134  1.00273219 30952"}}, "geometry": {"type": "Point", "coordinates": [-167.10884725792704, -0.00891069994837452]}}, {"type": "Feature", "properties": {"norad_id": 42950, "name": "INTELSAT 37E (IS-37E)", "group": "intelsat", "lat": -0.02237637355453066, "lon": -150.61478465722834, "alt_km": 35777.33327422301, "timestamp": "2025-12-14T09:36:22.702589+00:00", "meta": {"OBJECT_NAME": "INTELSAT 37E (IS-37E)", "OBJECT_ID": "2017-059A", "EPOCH": "2025-12-13T15:04:33.915648", "MEAN_MOTION": 1.00272198, "ECCENTRICITY": 0.00030305, "INCLINATION": 0.0183, "RA_OF_ASC_NODE": 2.7412, "ARG_OF_PERICENTER": 254.191, "MEAN_ANOMALY": 33.7726, "EPHEMERIS_TYPE": 0, "CLASSIFICATION_TYPE": "U", "NORAD_CAT_ID": 42950, "ELEMENT_SET_NO": 999, "REV_AT_EPOCH": 3020, "BSTAR": 0, "MEAN_MOTION_DOT": -1.25e-06, "MEAN_MOTION_DDOT": 0}, "tle": {"line1": "1 42950U 17059A   25347.62817032 -.00000125  00000+0  00000+0 0  9999", "line2": "2 42950   0.0183   2.7412 0003030 254.1910  33.7726  1.00272198 30201"}}, "geometry": {"type": "Point", "coordinates": [-150.61478465722834, -0.02237637355453066]}}, {"type": "Feature", "properties": {"norad_id": 43632, "name": "AZERSPACE 2 (IS-38)", "group": "intelsat", "lat": -0.03475281450753042, "lon": -87.48110578806573, "alt_km": 35780.39461255396, "timestamp": "2025-12-14T09:36:22.702601+00:00", "meta": {"OBJECT_NAME": "AZERSPACE 2 (IS-38)", "OBJECT_ID": "2018-074A", "EPOCH": "2025-12-13T11:57:06.868224", "MEAN_MOTION": 1.00271726, "ECCENTRICITY": 0.00013299, "INCLINATION": 0.0179, "RA_OF_ASC_NODE": 341.0856, "ARG_OF_PERICENTER": 285.6516, "MEAN_ANOMALY": 40.0836, "EPHEMERIS_TYPE": 0, "CLASSIFICATION_TYPE": "U", "NORAD_CAT_ID": 43632, "ELEMENT_SET_NO": 999, "REV_AT_EPOCH": 2658, "BSTAR": 0, "MEAN_MOTION_DOT": 1.51e-06, "MEAN_MOTION_DDOT": 0}, "tle": {"line1": "1 43632U 18074A   25347.49799616  .00000151  00000+0  00000+0 0  9995", "line2": "2 43632   0.0179 341.0856 0001329 285.6516  40.0836  1.00271726 26580"}}, "geometry": {"type": "Point", "coordinates": [-87.48110578806573, -0.03475281450753042]}}, {"type": "Feature", "properties": {"norad_id": 43633, "name": "HORIZONS-3E", "group": "intelsat", "lat": 0.010739909476147785, "lon": 36.398518997055, "alt_km": 35788.037004655416, "timestamp": "2025-12-14T09:36:22.702613+00:00", "meta": {"OBJECT_NAME": "HORIZONS-3E", "OBJECT_ID": "2018-074B", "EPOCH": "2025-12-13T13:25:29.006400", "MEAN_MOTION": 1.00268455, "ECCENTRICITY": 0.00011041, "INCLINATION": 0.0436, "RA_OF_ASC_NODE": 184.9145, "ARG_OF_PERICENTER": 108.7106, "MEAN_ANOMALY": 159.2276, "EPHEMERIS_TYPE": 0, "CLASSIFICATION_TYPE": "U", "NORAD_CAT_ID": 43633, "ELEMENT_SET_NO": 999, "REV_AT_EPOCH": 2647, "BSTAR": 0, "MEAN_MOTION_DOT": -1.6e-07, "MEAN_MOTION_DDOT": 0}, "tle": {"line1": "1 43633U 18074B   25347.55936350 -.00000016  00000+0  00000+0 0  9992", "line2": "2 43633   0.0436 184.9145 0001104 108.7106 159.2276  1.00268455 26477"}}, "geometry": {"type": "Point", "coordinates": [36.398518997055, 0.010739909476147785]}}, {"type": "Feature", "properties": {"norad_id": 44333, "name": "AT&T T-16", "group": "intelsat", "lat": 0.025015629413032082, "lon": 126.55110733088081, "alt_km": 35782.67277270605, "timestamp": "2025-12-14T09:36:22.702625+00:00", "meta": {"OBJECT_NAME": "AT&T T-16", "OBJECT_ID": "2019-034A", "EPOCH": "2025-12-13T14:40:58.675008", "MEAN_MOTION": 1.0027481, "ECCENTRICITY": 7.269e-05, "INCLINATION": 0.0263, "RA_OF_ASC_NODE": 70.8339, "ARG_OF_PERICENTER": 88.193, "MEAN_ANOMALY": 42.902, "EPHEMERIS_TYPE": 0, "CLASSIFICATION_TYPE": "U", "NORAD_CAT_ID": 44333, "ELEMENT_SET_NO": 999, "REV_AT_EPOCH": 2377, "BSTAR": 0, "MEAN_MOTION_DOT": -1e-06, "MEAN_MOTION_DDOT": 0}, "tle": {"line1": "1 44333U 19034A   25347.61179022 -.00000100  00000+0  00000+0 0  9993", "line2": "2 44333   0.0263  70.8339 0000726  88.1930  42.9020  1.00274810 23773"}}, "geometry": {"type": "Point", "coordinates": [126.55110733088081, 0.025015629413032082]}}]}